TEVEL2-7                
1 63238U 25052AE  26068.66113295  .00019244  00000+0  69668-3 0  9998
2 63238  97.4054 324.3041 0008105 124.6830 235.5175 15.28414096 54803
STARLINK-35347          
1 65907U 25224AB  26068.08212463  .00014707  00000+0  50774-3 0  9994
2 65907  53.1589  13.9958 0000964  95.9175 264.1936 15.30197663 24761
